ONEWEB-0319             
1 49105U 21075AG  25106.94369290  .00000078  00000+0  16884-3 0  9994
2 49105  87.9017  90.7711 0002322  96.6495 263.4901 13.17647493177472
ONEWEB-0323             
1 49106U 21075AH  25106.95118723 -.00000175  00000+0 -52194-3 0  9993
2 49106  87.8840  75.4525 0002533  98.3025 261.8391 13.12444122178645
ONEWEB-0329             
1 49107U 21075AJ  25106.95210620 -.00000017  00000+0 -78263-4 0  9994
2 49107  87.9018  90.7740 0002006  93.5768 266.5593 13.17651569177453
ONEWEB-0330             
1 49108U 21075AK  25106.95380234  .00000085  00000+0  18530-3 0  9997
2 49108  87.9017  90.7757 0001870  93.6139 266.5207 13.17646757177491
ONEWEB-0292             
1 49186U 21083A   25106.79957048  .00000105  00000+0  25236-3 0  9991
2 49186  87.8980  44.9990 0002083  82.4271 277.7094 13.13469191174952
ONEWEB-0303             
1 49187U 21083B   25106.87903408  .00001974  00000+0  49737-2 0  9998
2 49187  87.9122  60.1907 0002108  88.6690 271.4683 13.18673351173797
ONEWEB-0306             
1 49188U 21083C   25106.94542359  .00000017  00000+0  96908-5 0  9993
2 49188  87.9117  60.1619 0001806  80.5470 279.5866 13.18685423173844
ONEWEB-0307             
1 49189U 21083D   25106.86980001 -.00000320  00000+0 -91035-3 0  9998
2 49189  87.8980  44.9884 0001566  79.3445 280.7860 13.13470623174968
